H1 CPF  1  DLR 2022 11 25 13  8292 technosat            
H2  1704205 6203    42829 2022 11 25 00 00 00 2022 12 02 00 00 00    60 1 1  0 0 0
H9
10 0 59911  28800.000000  0       3143522.638      -1379165.724       6061956.773
10 0 59911  28860.000000  0       2734259.556      -1343619.892       6263852.086
10 0 59911  28920.000000  0       2313842.202      -1298789.675       6439196.332
10 0 59911  28980.000000  0       1884119.738      -1244773.639       6587243.563
10 0 59911  29040.000000  0       1446979.541      -1181725.297       6707362.794
10 0 59911  29100.000000  0       1004338.860      -1109852.759       6799040.602
10 0 59911  29160.000000  0        558136.421      -1029418.103       6861883.215
10 0 59911  29220.000000  0        110323.969       -940736.461       6895618.179
10 0 59911  29280.000000  0       -337142.241       -844174.821       6900095.496
10 0 59911  29340.000000  0       -782309.904       -740150.571       6875288.354
10 0 59911  29400.000000  0      -1223239.186       -629129.721       6821293.392
10 0 59911  29460.000000  0      -1658011.152       -511624.850       6738330.407
10 0 59911  29520.000000  0      -2084736.093       -388192.801       6626741.638
10 0 59911  29580.000000  0      -2501561.775       -259432.107       6486990.596
10 0 59911  29640.000000  0      -2906681.575       -125980.151       6319660.378
10 0 59911  29700.000000  0      -3298342.441         11489.897       6125451.485
10 0 59911  29760.000000  0      -3674852.675        152272.369       5905179.178
10 0 59911  29820.000000  0      -4034589.506        295632.630       5659770.272
10 0 59911  29880.000000  0      -4376006.316        440810.799       5390259.430
10 0 59911  29940.000000  0      -4697639.602        587025.638       5097785.056
10 0 59911  30000.000000  0      -4998115.616        733478.633       4783584.667
10 0 59911  30060.000000  0      -5276156.615        879358.253       4448989.755
10 0 59911  30120.000000  0      -5530586.614       1023844.289       4095420.205
10 0 59911  30180.000000  0      -5760336.717       1166112.309       3724378.354
10 0 59911  30240.000000  0      -5964449.993       1305338.213       3337442.636
10 0 59911  30300.000000  0      -6142085.843       1440702.838       2936260.812
10 0 59911  30360.000000  0      -6292523.810       1571396.557       2522542.837
10 0 59911  30420.000000  0      -6415166.819       1696623.881       2098053.445
10 0 59911  30480.000000  0      -6509543.869       1815608.058       1664604.417
10 0 59911  30540.000000  0      -6575312.092       1927595.625       1224046.546
10 0 59911  30600.000000  0      -6612258.116       2031860.849        778261.388
10 0 59911  30660.000000  0      -6620298.762       2127710.033        329152.879
10 0 59911  30720.000000  0      -6599481.126       2214485.651       -121361.144
10 0 59911  30780.000000  0      -6549981.991       2291570.329       -571357.518
10 0 59911  30840.000000  0      -6472106.561       2358390.608      -1018916.307
10 0 59911  30900.000000  0      -6366286.622       2414420.512      -1462129.301
10 0 59911  30960.000000  0      -6233078.075       2459184.870      -1899108.507
10 0 59911  31020.000000  0      -6073157.815       2492262.379      -2327994.543
10 0 59911  31080.000000  0      -5887319.963       2513288.359      -2746964.822
10 0 59911  31140.000000  0      -5676471.572       2521957.182      -3154241.475
10 0 59911  31200.000000  0      -5441627.808       2518024.378      -3548099.025
10 0 59911  31260.000000  0      -5183906.674       2501308.419      -3926871.727
10 0 59911  31320.000000  0      -4904523.285       2471692.179      -4288960.612
10 0 59911  31380.000000  0      -4604783.721       2429124.059      -4632840.144
10 0 59911  31440.000000  0      -4286078.511       2373618.766      -4957064.475
10 0 59911  31500.000000  0      -3949875.831       2305257.763      -5260273.267
10 0 59911  31560.000000  0      -3597714.450       2224189.389      -5541197.104
10 0 59911  31620.000000  0      -3231196.465       2130628.651      -5798662.497
10 0 59911  31680.000000  0      -2851979.826       2024856.675      -6031596.495
10 0 59911  31740.000000  0      -2461770.628       1907219.835      -6239030.852
10 0 59911  31800.000000  0      -2062315.231       1778128.536      -6420105.642
10 0 59911  31860.000000  0      -1655392.378       1638055.692      -6574072.326
10 0 59911  31920.000000  0      -1242805.371       1487534.940      -6700296.471
10 0 59911  31980.000000  0       -826374.124       1327158.529      -6798260.048
10 0 59911  32040.000000  0       -407927.212       1157574.931      -6867563.164
10 0 59911  32100.000000  0         10705.909        979486.245      -6907925.367
10 0 59911  32160.000000  0        427702.655        793645.326      -6919186.678
10 0 59911  32220.000000  0        841255.139        600852.617      -6901308.180
10 0 59911  32280.000000  0       1249577.922        401952.717      -6854371.992
10 0 59911  32340.000000  0       1650915.513        197830.737      -6778580.757
10 0 59911  32400.000000  0       2043549.676        -10591.556      -6674256.730
10 0 59911  32460.000000  0       2425806.568       -222359.770      -6541840.533
10 0 59911  32520.000000  0       2796063.819       -436491.150      -6381889.438
10 0 59911  32580.000000  0       3152757.299       -651979.035      -6195075.077
10 0 59911  32640.000000  0       3494387.542       -867797.420      -5982180.778
10 0 59911  32700.000000  0       3819525.959      -1082905.656      -5744098.605
10 0 59911  32760.000000  0       4126820.866      -1296253.354      -5481825.956
10 0 59911  32820.000000  0       4415003.177      -1506785.431      -5196461.653
10 0 59911  32880.000000  0       4682891.720      -1713447.207      -4889201.597
10 0 59911  32940.000000  0       4929398.190      -1915189.568      -4561334.051
10 0 59911  33000.000000  0       5153531.716      -2110974.183      -4214234.517
10 0 59911  33060.000000  0       5354403.039      -2299778.720      -3849360.229
10 0 59911  33120.000000  0       5531228.266      -2480602.080      -3468244.267
10 0 59911  33180.000000  0       5683332.159      -2652469.582      -3072489.284
10 0 59911  33240.000000  0       5810150.934      -2814438.095      -2663760.904
10 0 59911  33300.000000  0       5911234.545      -2965601.077      -2243780.791
10 0 59911  33360.000000  0       5986248.432      -3105093.461      -1814319.483
10 0 59911  33420.000000  0       6034974.808      -3232096.414      -1377188.987
10 0 59911  33480.000000  0       6057313.394      -3345841.952       -934235.107
10 0 59911  33540.000000  0       6053281.566      -3445617.309       -487329.572
10 0 59911  33600.000000  0       6023013.942      -3530769.071        -38362.060
10 0 59911  33660.000000  0       5966761.461      -3600707.056        410767.869
10 0 59911  33720.000000  0       5884889.928      -3654907.967        858158.956
10 0 59911  33780.000000  0       5777877.991      -3692918.700       1301916.518
10 0 59911  33840.000000  0       5646314.478      -3714359.244       1740160.714
10 0 59911  33900.000000  0       5490895.196      -3718925.220       2171034.609
10 0 59911  33960.000000  0       5312419.326      -3706390.125       2592712.117
10 0 59911  34020.000000  0       5111785.350      -3676607.205       3003405.901
10 0 59911  34080.000000  0       4889986.466      -3629510.855       3401375.061
10 0 59911  34140.000000  0       4648105.632      -3565117.633       3784932.524
10 0 59911  34200.000000  0       4387310.279      -3483526.963       4152452.239
10 0 59911  34260.000000  0       4108846.585      -3384921.425       4502376.178
10 0 59911  34320.000000  0       3814033.326      -3269566.596       4833220.970
10 0 59911  34380.000000  0       3504255.468      -3137810.446       5143584.095
10 0 59911  34440.000000  0       3180957.599      -2990082.355       5432149.738
10 0 59911  34500.000000  0       2845637.112      -2826891.730       5697694.304
10 0 59911  34560.000000  0       2499837.163      -2648826.269       5939091.492
10 0 59911  34620.000000  0       2145139.492      -2456549.843       6155316.951
10 0 59911  34680.000000  0       1783157.133      -2250800.006       6345452.481
10 0 59911  34740.000000  0       1415527.067      -2032385.187       6508689.826
10 0 59911  34800.000000  0       1043902.768      -1802181.476       6644334.013
10 0 59911  34860.000000  0        669946.767      -1561129.110       6751806.183
10 0 59911  34920.000000  0        295323.249      -1310228.653       6830645.997
10 0 59911  34980.000000  0        -78309.345      -1050536.838       6880513.577
10 0 59911  35040.000000  0       -449305.618       -783162.137       6901190.905
10 0 59911  35100.000000  0       -816040.411       -509260.112       6892582.844
10 0 59911  35160.000000  0      -1176915.935       -230028.436       6854717.659
10 0 59911  35220.000000  0      -1530368.729         53298.307       6787747.021
10 0 59911  35280.000000  0      -1874876.441        339454.040       6691945.557
10 0 59911  35340.000000  0      -2208964.434        627146.823       6567709.906
10 0 59911  35400.000000  0      -2531212.183        915064.654       6415557.272
10 0 59911  35460.000000  0      -2840259.402       1201881.434       6236123.497
10 0 59911  35520.000000  0      -3134811.923       1486263.071       6030160.674
10 0 59911  35580.000000  0      -3413647.313       1766873.701       5798534.271
10 0 59911  35640.000000  0      -3675620.179       2042382.019       5542219.749
10 0 59911  35700.000000  0      -3919667.125       2311467.694       5262298.688
10 0 59911  35760.000000  0      -4144811.320       2572827.821       4959954.399
10 0 59911  35820.000000  0      -4350166.702       2825183.323       4636467.087
10 0 59911  35880.000000  0      -4534941.763       3067285.310       4293208.513
10 0 59911  35940.000000  0      -4698442.836       3297921.369       3931636.251
99
